STARLINK-32322          
1 61720U 24196P   26068.30737883  .00000656  00000+0  34287-4 0  9993
2 61720  53.1608 103.4290 0001242  88.3850 271.7293 15.30193314 77095
2025-313BE              
1 67482U 25313BE  26068.69721505  .00077178  00000+0  26504-2 0  9996
2 67482  97.3989 145.3568 0007208 335.3714  24.7181 15.29801687  7972
