[{"OBJECT_NAME":"STARLINK-32322","OBJECT_ID":"2024-196P","EPOCH":"2026-03-09T07:22:37.530912","MEAN_MOTION":15.30193314,"ECCENTRICITY":0.00012425,"INCLINATION":53.1608,"RA_OF_ASC_NODE":103.429,"ARG_OF_PERICENTER":88.385,"MEAN_ANOMALY":271.7293,"EPHEMERIS_TYPE":0,"CLASSIFICATION_TYPE":"U","NORAD_CAT_ID":61720,"ELEMENT_SET_NO":999,"REV_AT_EPOCH":7709,"BSTAR":3.428676e-5,"MEAN_MOTION_DOT":6.56e-6,"MEAN_MOTION_DDOT":0},{"OBJECT_NAME":"OBJECT BE","OBJECT_ID":"2025-313BE","EPOCH":"2026-03-09T16:43:59.380320","MEAN_MOTION":15.29801687,"ECCENTRICITY":0.00072083,"INCLINATION":97.3989,"RA_OF_ASC_NODE":145.3568,"ARG_OF_PERICENTER":335.3714,"MEAN_ANOMALY":24.7181,"EPHEMERIS_TYPE":0,"CLASSIFICATION_TYPE":"U","NORAD_CAT_ID":67482,"ELEMENT_SET_NO":999,"REV_AT_EPOCH":797,"BSTAR":0.0026504328,"MEAN_MOTION_DOT":0.00077178,"MEAN_MOTION_DDOT":0}]
